COSMOS 2563             
1 54223U 22145A   26086.93855049 -.00001221  00000+0  00000+0 0  9990
2 54223  63.3491 290.8319 7079557 269.5375  16.3909  2.00559388 24939
