{
  "norad_id": 54223,
  "name": "COSMOS 2563",
  "history": [
    {
      "epoch": "2026-03-27T22:31:30.762336",
      "apogee_km": 38986.39671380618,
      "perigee_km": 1378.7693593664208,
      "latitude_deg": 47.980354658145814,
      "longitude_deg": -43.59915295988321,
      "semi_major_axis_km": 26560.7200365863,
      "eccentricity": 0.70795572,
      "inclination_deg": 63.3491,
      "raan_deg": 290.8319,
      "arg_perigee_deg": 269.5375,
      "mean_anomaly_deg": 16.3909,
      "mean_motion_rev_day": 2.00559388
    }
  ]
}